{"version": 0.6, "generator": "Overpass API 0.7.58.5 b0c4acbb", "osm3s": {"timestamp_osm_base": "2022-09-26T04:11:09Z", "copyright": "The data included in this document is from www.openstreetmap.org. The data is made available under ODbL."}, "elements": [{"type": "node", "id": 448863565, "lat": 34.4114691, "lon": -119.84817, "tags": {"amenity": "cafe", "brand": "Starbucks", "brand:wikidata": "Q37158", "brand:wikipedia": "en:Starbucks", "cuisine": "coffee_shop", "name": "Starbucks", "official_name": "Starbucks Coffee", "takeaway": "yes"}}, {"type": "node", "id": 449488584, "lat": 34.4130341, "lon": -119.8552715}, {"type": "node", "id": 534618761, "lat": 34.4134314, "lon": -119.8552542}, {"type": "node", "id": 534618762, "lat": 34.4134308, "lon": -119.8550865}, {"type": "node", "id": 534618778, "lat": 34.4130331, "lon": -119.8550461}, {"type": "node", "id": 534618831, "lat": 34.4122494, "lon": -119.8552859}, {"type": "node", "id": 534618833, "lat": 34.4122492, "lon": -119.855114}, {"type": "node", "id": 534627609, "lat": 34.4108069, "lon": -119.8558238}, {"type": "node", "id": 534635764, "lat": 34.4102045, "lon": -119.8572953}, {"type": "node", "id": 534635767, "lat": 34.4100899, "lon": -119.8572955}, {"type": "node", "id": 534635770, "lat": 34.4101308, "lon": -119.8570255}, {"type": "node", "id": 534635773, "lat": 34.4102042, "lon": -119.8570035}, {"type": "node", "id": 534636231, "lat": 34.4128054, "lon": -119.8578923}, {"type": "node", "id": 534636232, "lat": 34.4128046, "lon": -119.8577125}, {"type": "node", "id": 534636233, "lat": 34.4129738, "lon": -119.8577113}, {"type": "node", "id": 534636330, "lat": 34.4129057, "lon": -119.8557108}, {"type": "node", "id": 534644241, "lat": 34.4133052, "lon": -119.8568231}, {"type": "node", "id": 534644243, "lat": 34.413349, "lon": -119.8565291}, {"type": "node", "id": 534644244, "lat": 34.4132146, "lon": -119.8565293}, {"type": "node", "id": 648858830, "lat": 34.4133171, "lon": -119.8546679}, {"type": "node", "id": 648870096, "lat": 34.4132058, "lon": -119.8546682}, {"type": "node", "id": 658936933, "lat": 34.4299528, "lon": -119.8671273}, {"type": "node", "id": 658936934, "lat": 34.4299522, "lon": -119.866896}, {"type": "node", "id": 658936935, "lat": 34.4293739, "lon": -119.866898}, {"type": "node", "id": 761831834, "lat": 34.4120985, "lon": -119.8552472}, {"type": "node", "id": 1341709739, "lat": 34.4432462, "lon": -119.7881834, "tags": {"amenity": "restaurant", "cuisine": "american", "name": "IHOP", "source": "Local Knowledge"}}, {"type": "node", "id": 1348747781, "lat": 34.4417243, "lon": -119.8256961, "tags": {"amenity": "restaurant", "cuisine": "indian", "name": "Masala Spice Indian Cuisine"}}, {"type": "node", "id": 1355496166, "lat": 34.441887, "lon": -119.8285472}, {"type": "node", "id": 1355496271, "lat": 34.4417059, "lon": -119.8285465}, {"type": "node", "id": 1355496279, "lat": 34.4418863, "lon": -119.8287776}, {"type": "node", "id": 1355496292, "lat": 34.4417053, "lon": -119.8287769}, {"type": "node", "id": 1355533424, "lat": 34.4408756, "lon": -119.8229293}, {"type": "node", "id": 1355533435, "lat": 34.4407489, "lon": -119.822941}, {"type": "node", "id": 1355533441, "lat": 34.440762, "lon": -119.8231494}, {"type": "node", "id": 1355555242, "lat": 34.4409758, "lon": -119.8315191}, {"type": "node", "id": 1355555245, "lat": 34.4410732, "lon": -119.8313115}, {"type": "node", "id": 1355555248, "lat": 34.4410394, "lon": -119.8316184}, {"type": "node", "id": 1355555257, "lat": 34.4410485, "lon": -119.8314507}, {"type": "node", "id": 1355555262, "lat": 34.4411831, "lon": -119.831483}, {"type": "node", "id": 1355555265, "lat": 34.4410022, "lon": -119.8313784}, {"type": "node", "id": 1396621915, "lat": 34.4430236, "lon": -119.8801197, "tags": {"amenity": "restaurant", "name": "Frog Bar and Grill"}}, {"type": "node", "id": 1469690940, "lat": 34.4355015, "lon": -119.8028919, "tags": {"addr:city": "Santa Barbara", "addr:housenumber": "5114", "addr:postcode": "93111", "addr:street": "Hollister Avenue", "amenity": "bar", "name": "Mont's Sports Bar"}}, {"type": "node", "id": 1469714006, "lat": 34.4359638, "lon": -119.8028958, "tags": {"addr:city": "Santa Barbara", "addr:housenumber": "5134", "addr:postcode": "93111", "addr:street": "Hollister Avenue", "amenity": "cafe", "name": "Del Plebblo Cafe"}}, {"type": "node", "id": 1562106442, "lat": 34.4295715, "lon": -119.8724395, "tags": {"addr:city": "Goleta", "addr:housenumber": "7030", "addr:postcode": "93117", "addr:street": "Marketplace Drive", "amenity": "cafe", "brand": "Starbucks", "brand:wikidata": "Q37158", "brand:wikipedia": "en:Starbucks", "cuisine": "coffee_shop", "internet_access": "wlan", "name": "Starbucks", "official_name": "Starbucks Coffee", "opening_hours": "Mo-Fr 05:00-23:00; Sa-Su 05:30-23:00", "phone": "+1-805-968-2591", "phone_corporate": "+1-214-748-3647", "takeaway": "yes"}}, {"type": "node", "id": 1606810177, "lat": 34.4408887, "lon": -119.8231377}, {"type": "node", "id": 1672439401, "lat": 34.440717, "lon": -119.8286537, "tags": {"amenity": "bar", "name": "Z's Taphouse"}}, {"type": "node", "id": 1672878325, "lat": 34.4171849, "lon": -119.8293514}, {"type": "node", "id": 1672878326, "lat": 34.4169853, "lon": -119.8290798}, {"type": "node", "id": 1672878327, "lat": 34.416966, "lon": -119.8290178}, {"type": "node", "id": 1672878329, "lat": 34.4170761, "lon": -119.8289942}, {"type": "node", "id": 1672878332, "lat": 34.4171138, "lon": -119.8291443, "tags": {"amenity": "restaurant", "name": "Beachside Cafe"}}, {"type": "node", "id": 1672878333, "lat": 34.417101, "lon": -119.8293495}, {"type": "node", "id": 1672878334, "lat": 34.4170528, "lon": -119.8290197}, {"type": "node", "id": 1672878339, "lat": 34.4171021, "lon": -119.8292735}, {"type": "node", "id": 1672878340, "lat": 34.4169824, "lon": -119.8292709}, {"type": "node", "id": 1672878341, "lat": 34.4169651, "lon": -119.8290793}, {"type": "node", "id": 1672878344, "lat": 34.4171903, "lon": -119.8289967}, {"type": "node", "id": 1672878345, "lat": 34.4170757, "lon": -119.8290202}, {"type": "node", "id": 2303051352, "lat": 34.4157495, "lon": -119.8467032}, {"type": "node", "id": 2303051356, "lat": 34.4158431, "lon": -119.8466912}, {"type": "node", "id": 2303051357, "lat": 34.4157564, "lon": -119.8467182}, {"type": "node", "id": 2303051360, "lat": 34.4157495, "lon": -119.8467182}, {"type": "node", "id": 2303051362, "lat": 34.4157564, "lon": -119.8467582}, {"type": "node", "id": 2303051365, "lat": 34.4157495, "lon": -119.8467842}, {"type": "node", "id": 2303051366, "lat": 34.4157495, "lon": -119.8466913}, {"type": "node", "id": 2303051367, "lat": 34.4157495, "lon": -119.8467582}, {"type": "node", "id": 2303051368, "lat": 34.4158755, "lon": -119.8468631}, {"type": "node", "id": 2303051370, "lat": 34.4158486, "lon": -119.8466132}, {"type": "node", "id": 2303051371, "lat": 34.4157495, "lon": -119.8468503}, {"type": "node", "id": 2303051372, "lat": 34.415843, "lon": -119.8466132}, {"type": "node", "id": 2303051373, "lat": 34.4158146, "lon": -119.8468501}, {"type": "node", "id": 2303051374, "lat": 34.4158751, "lon": -119.8466132}, {"type": "node", "id": 2303051375, "lat": 34.4157564, "lon": -119.8467842}, {"type": "node", "id": 2303051376, "lat": 34.4157495, "lon": -119.8468242}, {"type": "node", "id": 2303051377, "lat": 34.4158146, "lon": -119.8468633}, {"type": "node", "id": 2303051378, "lat": 34.4157564, "lon": -119.8468242}, {"type": "node", "id": 2442092128, "lat": 34.4298698, "lon": -119.8706351}, {"type": "node", "id": 2442092129, "lat": 34.429673, "lon": -119.8707559}, {"type": "node", "id": 2442092130, "lat": 34.4295839, "lon": -119.8705426}, {"type": "node", "id": 2442092131, "lat": 34.4297807, "lon": -119.8704218}, {"type": "node", "id": 2442092132, "lat": 34.4296348, "lon": -119.8701737}, {"type": "node", "id": 2448210457, "lat": 34.4298894, "lon": -119.8670623, "tags": {"addr:city": "Goleta", "addr:housenumber": "6831", "addr:postcode": "93117", "addr:street": "Hollister Avenue", "addr:unit": "AA", "addr:zip": "93117", "amenity": "restaurant", "cuisine": "sandwich", "name": "Sam's To Go", "opening_hours": "Mo-Su 10:00-19:30", "phone": "+1 805-685-3022", "takeaway": "yes", "website": "samstogosb.com", "wheelchair": "yes"}}, {"type": "node", "id": 2448210461, "lat": 34.430019, "lon": -119.8671271}, {"type": "node", "id": 2487442406, "lat": 34.428969, "lon": -119.869457, "tags": {"addr:city": "Goleta", "addr:street": "Storke Road", "amenity": "restaurant", "cuisine": "pizza", "delivery": "yes", "name": "Rusty's Pizza Parlor"}}, {"type": "node", "id": 2576282973, "lat": 34.4108418, "lon": -119.8558235}, {"type": "node", "id": 2576282974, "lat": 34.4108643, "lon": -119.8558231}, {"type": "node", "id": 2576361596, "lat": 34.413042, "lon": -119.8571711}, {"type": "node", "id": 2576361597, "lat": 34.4127998, "lon": -119.8571728}, {"type": "node", "id": 2576464812, "lat": 34.4120984, "lon": -119.8551964}, {"type": "node", "id": 2895960480, "lat": 34.4133928, "lon": -119.8551007}, {"type": "node", "id": 2905126292, "lat": 34.4295957, "lon": -119.871155, "tags": {"addr:city": "Goleta", "addr:housenumber": "6980", "addr:postcode": "93117", "addr:street": "Marketplace Drive", "amenity": "pub", "name": "Hollister Brewing Company"}}, {"type": "node", "id": 2968156973, "lat": 34.4156158, "lon": -119.8447611, "tags": {"amenity": "cafe"}}, {"type": "node", "id": 3119924739, "lat": 34.4110042, "lon": -119.8570194, "tags": {"addr:city": "Isla Vista", "addr:housenumber": "6551", "addr:postcode": "93117", "addr:street": "Trigo Road", "addr:unit": "1", "amenity": "cafe", "cuisine": "bagels;coffee;breakfast;brunch", "internet_access": "no", "level": "0", "localwiki": "https://localwiki.org/islavista/Bagel_Cafe", "name": "Bagel Caf\u00e9", "opening_hours": "06:30-15:00", "phone": "+1-805-685-7114", "smoking": "no", "website": "https://ivbagelcafe.com/"}}, {"type": "node", "id": 3659156349, "lat": 34.4295883, "lon": -119.8722792, "tags": {"addr:city": "Goleta", "addr:housenumber": "7024", "addr:postcode": "93117", "addr:street": "Marketplace Drive", "amenity": "restaurant", "cuisine": "mexican", "name": "Los Agaves", "opening_hours": "11:00-21:00", "phone": "+1-805-968-4000", "smoking": "no", "wheelchair": "yes"}}, {"type": "node", "id": 3771334148, "lat": 34.4262618, "lon": -119.869205}, {"type": "node", "id": 3771334149, "lat": 34.4262645, "lon": -119.8693383}, {"type": "node", "id": 3771334154, "lat": 34.4263882, "lon": -119.8692012}, {"type": "node", "id": 3771334155, "lat": 34.4263909, "lon": -119.8693345}, {"type": "node", "id": 3771334563, "lat": 34.4326797, "lon": -119.8684325}, {"type": "node", "id": 3771334570, "lat": 34.4328036, "lon": -119.8683509}, {"type": "node", "id": 3771334571, "lat": 34.4328104, "lon": -119.8687243}, {"type": "node", "id": 3771334572, "lat": 34.4329343, "lon": -119.8686427}, {"type": "node", "id": 3806920257, "lat": 34.4148738, "lon": -119.8405306, "tags": {"amenity": "cafe", "cuisine": "Yoshinoya;cafe", "internet_access": "wlan", "name": "Courtyard Cafe", "opening_hours": "Mo-Fr 07:30-17:15", "outdoor_seating": "yes"}}, {"type": "node", "id": 3852294275, "lat": 34.4358092, "lon": -119.8283261, "tags": {"addr:city": "Goleta", "addr:country": "US", "addr:housenumber": "5871", "addr:postcode": "93117", "addr:state": "CA", "addr:street": "Hollister Avenue", "amenity": "pub", "name": "Mercury Lounge", "opening_hours": "Mo-Fr 17:00-02:00, Sa-Su 19:00-02:00"}}, {"type": "node", "id": 3852294276, "lat": 34.4347347, "lon": -119.8197359, "tags": {"addr:city": "Goleta", "addr:country": "US", "addr:housenumber": "320", "addr:postcode": "93117", "addr:state": "CA", "addr:street": "South Kellogg Avenue", "amenity": "bar", "name": "The Imperial", "opening_hours": "We-Fr 17:00-01:00, Sa 19:00-01:00", "outdoor_seating": "yes"}}, {"type": "node", "id": 3852294282, "lat": 34.4351433, "lon": -119.819747}, {"type": "node", "id": 3852294283, "lat": 34.4351556, "lon": -119.8193328}, {"type": "node", "id": 3852294287, "lat": 34.4353538, "lon": -119.8280622}, {"type": "node", "id": 3852294288, "lat": 34.4353547, "lon": -119.8279606}, {"type": "node", "id": 3852294290, "lat": 34.4354219, "lon": -119.8197591}, {"type": "node", "id": 3852294291, "lat": 34.4354342, "lon": -119.819345}, {"type": "node", "id": 3852294294, "lat": 34.4355004, "lon": -119.8280641}, {"type": "node", "id": 3852294295, "lat": 34.4355013, "lon": -119.8279625}, {"type": "node", "id": 4394263573, "lat": 34.4353115, "lon": -119.8122478}, {"type": "node", "id": 4394263574, "lat": 34.4354626, "lon": -119.8122235}, {"type": "node", "id": 4394263575, "lat": 34.4354775, "lon": -119.8123603}, {"type": "node", "id": 4394263576, "lat": 34.4353265, "lon": -119.8123844}, {"type": "node", "id": 4827772876, "lat": 34.4354503, "lon": -119.8122255}, {"type": "node", "id": 5367719686, "lat": 34.4133174, "lon": -119.8546934}, {"type": "node", "id": 5367719689, "lat": 34.4133257, "lon": -119.8546932}, {"type": "node", "id": 5367719695, "lat": 34.413206, "lon": -119.8546798}, {"type": "node", "id": 5377178080, "lat": 34.413381, "lon": -119.8559529}, {"type": "node", "id": 5377178081, "lat": 34.4133803, "lon": -119.8558728}, {"type": "node", "id": 5377178082, "lat": 34.4132099, "lon": -119.855875}, {"type": "node", "id": 5377178083, "lat": 34.4132106, "lon": -119.855955}, {"type": "node", "id": 5382676237, "lat": 34.4128542, "lon": -119.8571728}, {"type": "node", "id": 5382676238, "lat": 34.4129172, "lon": -119.8571746}, {"type": "node", "id": 5382676408, "lat": 34.4130376, "lon": -119.8572705}, {"type": "node", "id": 5382676409, "lat": 34.4129171, "lon": -119.8572703}, {"type": "node", "id": 5382676412, "lat": 34.4129061, "lon": -119.8555073}, {"type": "node", "id": 5382676413, "lat": 34.4129136, "lon": -119.8552719}, {"type": "node", "id": 5382676415, "lat": 34.4129129, "lon": -119.855048}, {"type": "node", "id": 5382676416, "lat": 34.4133925, "lon": -119.8550865}, {"type": "node", "id": 5382676417, "lat": 34.4133291, "lon": -119.8551823}, {"type": "node", "id": 5382676418, "lat": 34.4133936, "lon": -119.8552548}, {"type": "node", "id": 5382676419, "lat": 34.413382, "lon": -119.8551124}, {"type": "node", "id": 5382676428, "lat": 34.413223, "lon": -119.8567356}, {"type": "node", "id": 5382676429, "lat": 34.413305, "lon": -119.8567352}, {"type": "node", "id": 5388736777, "lat": 34.4132146, "lon": -119.8564435}, {"type": "node", "id": 5388736778, "lat": 34.4133641, "lon": -119.8564742}, {"type": "node", "id": 5388736779, "lat": 34.413349, "lon": -119.8564742}, {"type": "node", "id": 5388736781, "lat": 34.4132231, "lon": -119.8568509}, {"type": "node", "id": 5388736782, "lat": 34.4133054, "lon": -119.8568512}, {"type": "node", "id": 5388736783, "lat": 34.4132231, "lon": -119.8568396}, {"type": "node", "id": 5388736784, "lat": 34.4128001, "lon": -119.8572707}, {"type": "node", "id": 5388736786, "lat": 34.4130376, "lon": -119.8572247}, {"type": "node", "id": 5388736787, "lat": 34.4130419, "lon": -119.8572247}, {"type": "node", "id": 5388736788, "lat": 34.4129349, "lon": -119.8571709}, {"type": "node", "id": 5388736789, "lat": 34.4129348, "lon": -119.8571746}, {"type": "node", "id": 5388736790, "lat": 34.4129172, "lon": -119.8571729}, {"type": "node", "id": 5388736791, "lat": 34.4130424, "lon": -119.8572708}, {"type": "node", "id": 5388736792, "lat": 34.4130424, "lon": -119.8573268}, {"type": "node", "id": 5388736798, "lat": 34.4130427, "lon": -119.8573742}, {"type": "node", "id": 5388736799, "lat": 34.4130426, "lon": -119.8574588}, {"type": "node", "id": 5388736800, "lat": 34.4129975, "lon": -119.8574685}, {"type": "node", "id": 5388736801, "lat": 34.4129975, "lon": -119.857464}, {"type": "node", "id": 5388736802, "lat": 34.412891, "lon": -119.8574639}, {"type": "node", "id": 5388736803, "lat": 34.4130204, "lon": -119.8574685}, {"type": "node", "id": 5388736804, "lat": 34.4130204, "lon": -119.8574588}, {"type": "node", "id": 5388736808, "lat": 34.4128543, "lon": -119.8572706}, {"type": "node", "id": 5416803495, "lat": 34.4292964, "lon": -119.8671315}, {"type": "node", "id": 5416803496, "lat": 34.4298105, "lon": -119.8670706, "tags": {"addr:city": "Goleta", "addr:housenumber": "6831", "addr:postcode": "93117", "addr:street": "Hollister Avenue", "addr:unit": "B", "amenity": "restaurant", "cuisine": "chinese", "name": "Lucky Dragon", "phone": "+1 408-770-5651"}}, {"type": "node", "id": 5448653195, "lat": 34.4117918, "lon": -119.8569457}, {"type": "node", "id": 5448653197, "lat": 34.4117255, "lon": -119.8569472}, {"type": "node", "id": 5448654848, "lat": 34.4130407, "lon": -119.8557104}, {"type": "node", "id": 5448654850, "lat": 34.4130407, "lon": -119.8557618}, {"type": "node", "id": 5449247187, "lat": 34.4118972, "lon": -119.8547534, "tags": {"addr:city": "Isla Vista", "addr:housenumber": "6530", "addr:postcode": "93117", "addr:street": "Seville Road", "addr:unit": "101", "amenity": "cafe", "cuisine": "donut", "localwiki": "https://localwiki.org/islavista/Spudnuts_Donuts", "name": "Spudnuts Donuts", "opening_hours": "Mo-We 07:30-00:00; Th-Sa 07:30-02:00; Su 08:00-00:00", "phone": "+1-805-845-4517", "website": "http://www.spudnutsdonutssb.com/"}}, {"type": "node", "id": 5479655782, "lat": 34.4115898, "lon": -119.8552258}, {"type": "node", "id": 5479655783, "lat": 34.4116399, "lon": -119.8552256}, {"type": "node", "id": 5479655784, "lat": 34.4116397, "lon": -119.8551197}, {"type": "node", "id": 5479655785, "lat": 34.4116669, "lon": -119.8551197}, {"type": "node", "id": 5479655786, "lat": 34.4116668, "lon": -119.855094}, {"type": "node", "id": 5479655796, "lat": 34.4115895, "lon": -119.8550945}, {"type": "node", "id": 5551311534, "lat": 34.4108827, "lon": -119.8557825}, {"type": "node", "id": 5551311535, "lat": 34.4109115, "lon": -119.855725}, {"type": "node", "id": 5551311536, "lat": 34.4109609, "lon": -119.8556527}, {"type": "node", "id": 5551311540, "lat": 34.4129056, "lon": -119.8557621}, {"type": "node", "id": 5551311546, "lat": 34.4121248, "lon": -119.8552849}, {"type": "node", "id": 5551601089, "lat": 34.4128909, "lon": -119.8573739}, {"type": "node", "id": 5551601090, "lat": 34.4130322, "lon": -119.8573268}, {"type": "node", "id": 5551674141, "lat": 34.4130321, "lon": -119.857374}, {"type": "node", "id": 5551674142, "lat": 34.4129967, "lon": -119.857374}, {"type": "node", "id": 5551674143, "lat": 34.4128908, "lon": -119.8572706}, {"type": "node", "id": 5600999815, "lat": 34.4118967, "lon": -119.8548208, "tags": {"addr:city": "Isla Vista", "addr:housenumber": "6530", "addr:postcode": "93117", "addr:street": "Seville Road", "addr:unit": "102", "amenity": "restaurant", "contact:website": "https://www.facebook.com/pokirito/", "cuisine": "asian", "name": "PokiRito", "opening_hours": "11:00-21:00", "phone": "+1-805-883-3933", "website": "http://poki-rito.com/"}}, {"type": "node", "id": 5600999816, "lat": 34.4108393, "lon": -119.855661}, {"type": "node", "id": 5601332083, "lat": 34.4133641, "lon": -119.8564433}, {"type": "node", "id": 5614341772, "lat": 34.4279519, "lon": -119.876259, "tags": {"addr:housenumber": "7127", "addr:unit": "27", "amenity": "cafe", "brand": "Starbucks", "brand:wikidata": "Q37158", "brand:wikipedia": "en:Starbucks", "building": "yes", "cuisine": "coffee_shop", "name": "Starbucks", "official_name": "Starbucks Coffee", "takeaway": "yes"}}, {"type": "node", "id": 5640501511, "lat": 34.4128706, "lon": -119.8555073}, {"type": "node", "id": 5640501514, "lat": 34.4129434, "lon": -119.8557107}, {"type": "node", "id": 5640501515, "lat": 34.4129433, "lon": -119.8555073}, {"type": "node", "id": 5640501516, "lat": 34.412871, "lon": -119.8557108}, {"type": "node", "id": 5805070254, "lat": 34.4295199, "lon": -119.8692497, "tags": {"addr:city": "Goleta", "addr:housenumber": "250", "addr:postcode": "93117", "addr:street": "Storke Road", "addr:unit": "B", "amenity": "restaurant", "cuisine": "italian", "name": "Ca'Dario Cucina Italiana", "opening_hours": "11:30-22:00", "phone": "+1-805-884-9419", "website": "https://www.cadario.net"}}, {"type": "node", "id": 5885604494, "lat": 34.436714, "lon": -119.79175}, {"type": "node", "id": 5885604495, "lat": 34.436714, "lon": -119.791697}, {"type": "node", "id": 5885604496, "lat": 34.436479, "lon": -119.791699}, {"type": "node", "id": 5885604497, "lat": 34.436481, "lon": -119.791909}, {"type": "node", "id": 5885604498, "lat": 34.436765, "lon": -119.791905}, {"type": "node", "id": 5885604499, "lat": 34.436764, "lon": -119.79175}, {"type": "node", "id": 5895761312, "lat": 34.4356121, "lon": -119.803849, "tags": {"addr:city": "Santa Barbara", "addr:housenumber": "5170", "addr:postcode": "93111", "addr:street": "Hollister Avenue", "amenity": "cafe", "brand": "Starbucks", "brand:wikidata": "Q37158", "brand:wikipedia": "en:Starbucks", "cuisine": "coffee_shop", "name": "Starbucks", "official_name": "Starbucks Coffee", "takeaway": "yes"}}, {"type": "node", "id": 6031493148, "lat": 34.4293963, "lon": -119.876892, "tags": {"addr:city": "Goleta", "addr:housenumber": "7127", "addr:postcode": "93117", "addr:street": "Hollister Avenue", "addr:unit": "30", "amenity": "restaurant", "cuisine": "japanese;asian", "name": "Itsuki Japanese Restaurant", "opening_hours": "11:30-14:30,17:30-21:30", "opening_hours:covid19": "same", "phone": "+1-805-968-1838", "website": "http://www.itsukirestaurant.com/"}}, {"type": "node", "id": 6031493361, "lat": 34.4311243, "lon": -119.8739322, "tags": {"addr:city": "Goleta", "addr:housenumber": "7060", "addr:postcode": "93117", "addr:street": "Hollister Avenue", "addr:unit": "105", "amenity": "restaurant", "cuisine": "breakfast;sandwich;salad;bakery", "name": "Jeannine's", "opening_hours": "We-Su 07:30-13:30", "phone": "+1-805-869-6371", "website": "https://www.jeannines.com"}}, {"type": "node", "id": 6031493363, "lat": 34.4311318, "lon": -119.8743002, "tags": {"addr:city": "Goleta", "addr:housenumber": "7060", "addr:postcode": "93117", "addr:street": "Hollister Avenue", "addr:unit": "101", "amenity": "cafe", "cuisine": "bubble_tea", "name": "Hochaya Tea House", "opening_hours": "Mo-Su 12:00-21:00", "phone": "+1-805-324-4939", "website": "https://www.hochaya.com"}}, {"type": "node", "id": 6031493366, "lat": 34.4311152, "lon": -119.8738434, "tags": {"addr:city": "Goleta", "addr:housenumber": "7060", "addr:postcode": "93117", "addr:state": "CA", "addr:street": "Hollister Avenue", "addr:unit": "106", "amenity": "restaurant", "cuisine": "thai", "name": "TAP Thai Cuisine", "opening_hours": "Su-Th 11:00-21:00; Fr-Sa 11:00-21:30", "opening_hours:dinner": "Su-Th 17:00-21:00; Fr-Sa 17:00-21:30", "opening_hours:lunch": "Su-Th 11:00-15:00; Fr-Sa 11:00-15:00", "phone": "+1-805-770-8089", "website": "https://www.tapthaicuisine.com"}}, {"type": "node", "id": 6031493393, "lat": 34.4305476, "lon": -119.8723587, "tags": {"addr:city": "Goleta", "addr:housenumber": "7000", "addr:postcode": "93117", "addr:street": "Hollister Avenue", "addr:unit": "102", "amenity": "restaurant", "contact:instagram": "https://www.instagram.com/choppapoke_statest/", "delivery": "yes", "name": "Choppa Poke", "opening_hours": "Mo-Fr 11:00-22:00; Sa-Su 11:00-23:00", "phone": "+1-805-770-3826"}}, {"type": "node", "id": 6031493394, "lat": 34.4305308, "lon": -119.8722243, "tags": {"addr:city": "Goleta", "addr:housenumber": "7000", "addr:postcode": "93117", "addr:street": "Hollister Avenue", "addr:unit": "103", "amenity": "restaurant", "name": "Kyle's Kitchen", "opening_hours": "Mo-Sa 11:00-20:00", "phone": "+1-805-845-3436"}}, {"type": "node", "id": 6033119903, "lat": 34.429408, "lon": -119.869411, "tags": {"addr:city": "Goleta", "addr:housenumber": "250", "addr:postcode": "93117", "addr:state": "CA", "addr:street": "Storke Road", "addr:unit": "1-A", "amenity": "cafe", "name": "Dune Coffee Roasters", "opening_hours": "06:00-19:00", "outdoor_seating": "yes", "phone": "+1-805-968-0493", "website": "https://www.dunecoffee.com"}}, {"type": "node", "id": 6035874848, "lat": 34.436135, "lon": -119.8158627, "tags": {"access": "customers", "amenity": "restaurant", "cuisine": "breakfast", "delivery": "no", "name": "Breakfast Caf\u00e9", "note": "Complimentary hot breakfast for hotel stays", "opening_hours": "Mo-Su 06:30-10:00", "outdoor_seating": "yes", "takeaway": "no"}}, {"type": "node", "id": 6038093278, "lat": 34.4295206, "lon": -119.87258, "tags": {"addr:city": "Goleta", "addr:housenumber": "7038", "addr:postcode": "93117", "addr:street": "Marketplace Drive", "amenity": "cafe", "cuisine": "burger;taco;sandwich;salad;breakfast;dessert", "description": "Taco Tuesdays", "name": "On The Alley", "opening_hours": "08:00-19:00", "opening_hours:covid19": "same", "phone": "+1-805-845-8096", "website": "https://www.onthealley.com/welcome-goleta"}}, {"type": "node", "id": 6038093281, "lat": 34.4295103, "lon": -119.8712779, "tags": {"addr:city": "Goleta", "addr:housenumber": "6990", "addr:postcode": "93117", "addr:street": "Marketplace Drive", "amenity": "cafe", "name": "Natural Cafe", "phone": "+1-805-685-2039", "website": "http://thenaturalcafe.com/"}}, {"type": "node", "id": 6038096698, "lat": 34.4295285, "lon": -119.8704141}, {"type": "node", "id": 6070195423, "lat": 34.4119762, "lon": -119.8551964}, {"type": "node", "id": 6070199821, "lat": 34.432756, "lon": -119.848306}, {"type": "node", "id": 6109689162, "lat": 34.4295817, "lon": -119.8700664}, {"type": "node", "id": 6109689163, "lat": 34.4294201, "lon": -119.8702678}, {"type": "node", "id": 6165117875, "lat": 34.432964, "lon": -119.848314}, {"type": "node", "id": 6165117876, "lat": 34.432972, "lon": -119.847991}, {"type": "node", "id": 6165117877, "lat": 34.432914, "lon": -119.847989}, {"type": "node", "id": 6165117878, "lat": 34.432915, "lon": -119.8479455}, {"type": "node", "id": 6165117887, "lat": 34.432846, "lon": -119.847813}, {"type": "node", "id": 6165117888, "lat": 34.432847, "lon": -119.847754}, {"type": "node", "id": 6165117889, "lat": 34.432728, "lon": -119.84775}, {"type": "node", "id": 6165117890, "lat": 34.432723, "lon": -119.847916}, {"type": "node", "id": 6165117891, "lat": 34.432765, "lon": -119.847918}, {"type": "node", "id": 6172158339, "lat": 34.4322098, "lon": -119.8761645, "tags": {"addr:city": "Goleta", "addr:housenumber": "53", "addr:postcode": "93117", "addr:street": "Santa Felicia Drive", "alt_name": "Draughtsman Ale", "amenity": "pub", "name": "Draughtsmen Aleworks", "opening_hours": "Mo-Th 14:00-21:00; Fr-Su 11:30-21:00", "phone": "+1-805-968-6500", "website": "https://www.draughtsmenaleworks.com/"}}, {"type": "node", "id": 6181331188, "lat": 34.4394807, "lon": -119.8523719, "tags": {"addr:city": "Goleta", "addr:housenumber": "6489", "addr:postcode": "93117", "addr:street": "Calle Real", "addr:unit": "D", "amenity": "pub", "name": "Captain Fatty's Brewery", "opening_hours": "11:00-21:00", "website": "http://www.captainfattys.com/"}}, {"type": "node", "id": 6202480263, "lat": 34.4364181, "lon": -119.79121}, {"type": "node", "id": 6202480264, "lat": 34.4364789, "lon": -119.7908858}, {"type": "node", "id": 6202480265, "lat": 34.4366356, "lon": -119.7909284}, {"type": "node", "id": 6202482037, "lat": 34.4375434, "lon": -119.7909645, "tags": {"addr:city": "Goleta", "addr:housenumber": "177", "addr:postcode": "93111", "addr:street": "South Turnpike Road", "amenity": "cafe", "description": "Deli, Juice Bar, Espresso", "name": "Goleta Coffee Company", "opening_hours": "06:00-16:00", "phone": "+1-805-964-8344", "website": "https://www.facebook.com/pages/Goleta-Coffee-Company/114214958602915"}}, {"type": "node", "id": 6202482039, "lat": 34.4365748, "lon": -119.7912558}, {"type": "node", "id": 6401616641, "lat": 34.4409167, "lon": -119.8240939, "tags": {"amenity": "restaurant", "cuisine": "burger", "name": "Kyle's Kitchen", "outdoor_seating": "yes"}}, {"type": "node", "id": 6401616966, "lat": 34.4416203, "lon": -119.824618, "tags": {"amenity": "restaurant", "cuisine": "sushi", "name": "Sushi Teri"}}, {"type": "node", "id": 6474493934, "lat": 34.430019, "lon": -119.8670947}, {"type": "node", "id": 6474493935, "lat": 34.4300316, "lon": -119.8670947}, {"type": "node", "id": 6474493936, "lat": 34.4300312, "lon": -119.8669427}, {"type": "node", "id": 6474493937, "lat": 34.4300055, "lon": -119.8669428}, {"type": "node", "id": 6474493938, "lat": 34.4300053, "lon": -119.8668958}, {"type": "node", "id": 6474493940, "lat": 34.4299901, "lon": -119.8671272}, {"type": "node", "id": 6474493941, "lat": 34.4293147, "lon": -119.8671313}, {"type": "node", "id": 6474493943, "lat": 34.4293753, "lon": -119.8671308}, {"type": "node", "id": 6474493944, "lat": 34.429295, "lon": -119.8668987}, {"type": "node", "id": 6533881229, "lat": 34.4329147, "lon": -119.8479572}, {"type": "node", "id": 6533881230, "lat": 34.4329176, "lon": -119.8478171}, {"type": "node", "id": 6925940293, "lat": 34.428971, "lon": -119.8681159, "tags": {"amenity": "cafe", "brand": "Starbucks", "brand:wikidata": "Q37158", "brand:wikipedia": "en:Starbucks", "cuisine": "coffee_shop", "name": "Starbucks", "official_name": "Starbucks Coffee", "takeaway": "yes"}}, {"type": "node", "id": 7090604643, "lat": 34.4118973, "lon": -119.8548859, "tags": {"addr:city": "Isla Vista", "addr:housenumber": "6530", "addr:postcode": "93117", "addr:street": "Seville Road", "amenity": "cafe", "contact:phone": "+1-805-324-4350", "cuisine": "asian;tea;chicken", "name": "Mojo Asian Fusion Caf\u00e9", "opening_hours": "Su-Th 11:00-22:00; Fr-Sa 12:00-00:00", "website": "https://www.mojocafes.com"}}, {"type": "node", "id": 7090604645, "lat": 34.4117251, "lon": -119.8567002}, {"type": "node", "id": 7090604646, "lat": 34.4116645, "lon": -119.8567002}, {"type": "node", "id": 7090604647, "lat": 34.4116652, "lon": -119.856947}, {"type": "node", "id": 7090604648, "lat": 34.4117911, "lon": -119.8566995}, {"type": "node", "id": 7090604680, "lat": 34.4121235, "lon": -119.8551144}, {"type": "node", "id": 7090604681, "lat": 34.4119763, "lon": -119.8552479}, {"type": "node", "id": 7090604683, "lat": 34.4108852, "lon": -119.8555819}, {"type": "node", "id": 7090604684, "lat": 34.4108252, "lon": -119.855647}, {"type": "node", "id": 7090642285, "lat": 34.4108182, "lon": -119.8556555}, {"type": "node", "id": 7090642286, "lat": 34.4108116, "lon": -119.8556485}, {"type": "node", "id": 7090642287, "lat": 34.4108022, "lon": -119.855665}, {"type": "node", "id": 7090642288, "lat": 34.4108017, "lon": -119.8558238}, {"type": "node", "id": 7090642303, "lat": 34.4132299, "lon": -119.854694}, {"type": "node", "id": 7090642304, "lat": 34.4132061, "lon": -119.8546937}, {"type": "node", "id": 7090642311, "lat": 34.4132296, "lon": -119.8548006}, {"type": "node", "id": 7090642312, "lat": 34.4133256, "lon": -119.8547997}, {"type": "node", "id": 7217447385, "lat": 34.4129747, "lon": -119.857891}, {"type": "node", "id": 7689528950, "lat": 34.4117815, "lon": -119.8569456}, {"type": "node", "id": 7689528951, "lat": 34.4117815, "lon": -119.8569488}, {"type": "node", "id": 7690161268, "lat": 34.4101308, "lon": -119.8570036}, {"type": "node", "id": 7690161269, "lat": 34.4100896, "lon": -119.8570256}, {"type": "node", "id": 7888671165, "lat": 34.4129577, "lon": -119.857464, "tags": {"artist_name": "UCSB Urban Art Workshop", "artwork_type": "mural", "name": "A View of the World from Isla Vista", "start_date": "2013-09..2013-11", "tourism": "artwork"}}, {"type": "node", "id": 9749849037, "lat": 34.4248587, "lon": -119.836461, "tags": {"amenity": "restaurant", "level": "2", "name": "Costa Terraza", "website": "https://flysba.santabarbaraca.gov/terminal/dine-shop"}}, {"type": "node", "id": 9749849040, "lat": 34.4249372, "lon": -119.836479, "tags": {"amenity": "cafe", "brand": "The Coffee Bean & Tea Leaf", "brand:wikidata": "Q1141384", "cuisine": "coffee_shop", "level": "2", "name": "The Coffee Bean & Tea Leaf", "takeaway": "yes", "website": "https://flysba.santabarbaraca.gov/terminal/dine-shop"}}, {"type": "node", "id": 9753446729, "lat": 34.4296051, "lon": -119.8700938}, {"type": "node", "id": 9753446730, "lat": 34.4295971, "lon": -119.8701298}, {"type": "node", "id": 9753446731, "lat": 34.4295998, "lon": -119.8701006}, {"type": "node", "id": 9753446732, "lat": 34.4296105, "lon": -119.870113}, {"type": "node", "id": 9753446733, "lat": 34.4296035, "lon": -119.8702115}, {"type": "node", "id": 9753446734, "lat": 34.4296489, "lon": -119.8702656}, {"type": "node", "id": 9753446735, "lat": 34.4294908, "lon": -119.8703674}, {"type": "node", "id": 9753446736, "lat": 34.4294484, "lon": -119.8703539}, {"type": "node", "id": 9753446737, "lat": 34.4294588, "lon": -119.8703039}, {"type": "node", "id": 9753446738, "lat": 34.4294336, "lon": -119.8702772}, {"type": "node", "id": 9753446739, "lat": 34.4294312, "lon": -119.8702804}, {"type": "node", "id": 9762084977, "lat": 34.4418617, "lon": -119.8322678, "tags": {"addr:city": "Goleta", "addr:housenumber": "173", "addr:postcode": "93117", "addr:state": "CA", "addr:street": "North Fairview Avenue", "amenity": "cafe", "brand": "Starbucks", "brand:wikidata": "Q37158", "cuisine": "coffee_shop", "name": "Starbucks", "official_name": "Starbucks Coffee", "phone": "+1 (805) 681-1088", "shop": "coffee", "takeaway": "yes", "website": "https://www.starbucks.com/store-locator/store/16536/goleta-173-n-fairview-avenue-goleta-ca-931172304-us"}}, {"type": "node", "id": 9764796274, "lat": 34.4411749, "lon": -119.8283434, "tags": {"amenity": "restaurant", "name": "China King"}}, {"type": "node", "id": 9944086037, "lat": 34.4346416, "lon": -119.8357863, "tags": {"addr:city": "Santa Barbara", "addr:housenumber": "6100", "addr:postcode": "93117", "addr:state": "CA", "addr:street": "Hollister Avenue", "addr:unit": "1", "amenity": "cafe", "internet_access": "yes", "internet_access:fee": "no", "name": "Dean: a coffee shop", "opening_hours": "Mo-Fr 06:00-18:00", "outdoor_seating": "yes", "phone": "8053504110"}}, {"type": "way", "id": 42753885, "nodes": [534635764, 534635773, 7690161268, 534635770, 7690161269, 534635767, 534635764], "tags": {"addr:city": "Isla Vista", "addr:housenumber": "6565", "addr:postcode": "93117", "addr:street": "Sabado Tarde Road", "amenity": "restaurant", "building": "yes", "building:levels": "3", "cuisine": "pub", "name": "Levi's Cowboy Kingdom"}}, {"type": "way", "id": 42753966, "nodes": [7217447385, 534636233, 534636232, 534636231, 7217447385], "tags": {"addr:city": "Isla Vista", "addr:housenumber": "6583", "addr:postcode": "93117", "addr:street": "Pardall Road", "amenity": "restaurant", "building": "yes", "building:levels": "1", "cuisine": "pizza;burger;chicken;grill;american", "email": "info@rockfiregrill.com", "localwiki": "https://localwiki.org/islavista/Giovanni%27s_Pizza", "name": "Rockfire Grill", "opening_hours": "11:00-00:00", "phone": "+1-805-770-3432", "takeaway": "yes", "website": "https://www.rockfiregrill.com"}}, {"type": "way", "id": 121017868, "nodes": [1355496279, 1355496292, 1355496271, 1355496166, 1355496279], "tags": {"addr:city": "Goleta", "addr:housenumber": "5934", "addr:postcode": "93117", "addr:street": "Calle Real", "amenity": "restaurant", "building": "yes", "cuisine": "pizza", "name": "Rusty's Pizza", "opening_hours": "11:00-00:00", "phone": "+1-805-564-1111", "website": "http://rustyspizza.com/santa-barbara/locations#MainContent_LocationsControl_C001_dlStoreLocations_imgLocation_4"}}, {"type": "way", "id": 121020733, "nodes": [1606810177, 1355533441, 1355533435, 1355533424, 1606810177], "tags": {"addr:city": "Goleta", "addr:housenumber": "5687", "addr:postcode": "93117", "addr:state": "CA", "addr:street": "Calle Real", "amenity": "restaurant", "building": "commercial", "cuisine": "american", "name": "Nugget", "phone": "+1 (805) 964 5200", "smoking": "no", "website": "http://thenuggetofgoleta.wix.com/nuggetbarandgrill"}}, {"type": "way", "id": 121021762, "nodes": [1355555248, 1355555242, 1355555257, 1355555265, 1355555245, 1355555262, 1355555248], "tags": {"addr:city": "Goleta", "addr:housenumber": "6025", "addr:postcode": "93117", "addr:street": "Calle Real", "amenity": "restaurant", "building": "yes", "name": "Cajun Kitchen Cafe", "old_name": "Rusty's Pizza", "opening_hours": "06:30-14:30", "phone": "+1-805-770-3265", "smoking": "outside", "website": "https://cajunkitchencafe.com/restaurant-locations#yui_3_17_2_1_1542347852549_326"}}, {"type": "way", "id": 154820708, "nodes": [1672878325, 1672878344, 1672878329, 1672878345, 1672878334, 1672878327, 1672878341, 1672878326, 1672878340, 1672878339, 1672878333, 1672878325], "tags": {"amenity": "restaurant", "building": "yes", "name": "Beachside Bar & Cafe"}}, {"type": "way", "id": 221259487, "nodes": [2303051356, 2303051366, 2303051352, 2303051360, 2303051357, 2303051362, 2303051367, 2303051365, 2303051375, 2303051378, 2303051376, 2303051371, 2303051373, 2303051377, 2303051368, 2303051374, 2303051370, 2303051372, 2303051356], "tags": {"amenity": "cafe", "building": "university", "name": "Coral Tree Cafe", "ref": "532"}}, {"type": "way", "id": 236147812, "nodes": [2442092128, 2442092129, 2442092130, 2442092131, 2442092128], "tags": {"addr:city": "Goleta", "addr:housenumber": "6950", "addr:postcode": "93117", "addr:street": "Marketplace Drive", "amenity": "restaurant", "brand": "Chili's", "brand:wikidata": "Q1072948", "brand:wikipedia": "en:Chili's", "building": "yes", "cuisine": "tex-mex", "name": "Chili's", "official_name": "Chili's Grill & Bar"}}, {"type": "way", "id": 373714077, "nodes": [3771334572, 3771334570, 3771334563, 3771334571, 3771334572], "tags": {"addr:city": "Goleta", "addr:housenumber": "6860", "addr:postcode": "93117", "addr:street": "Cortona Drive", "addr:unit": "C", "amenity": "pub", "building": "yes", "name": "M. Special Brewing Company", "opening_hours": "11:30-21:00", "phone": "+1-805-968-6500"}}, {"type": "way", "id": 373714089, "nodes": [3771334155, 3771334154, 3771334148, 3771334149, 3771334155], "tags": {"addr:city": "Goleta", "addr:housenumber": "370", "addr:postcode": "93117", "addr:street": "Storke Road", "addr:unit": "A", "amenity": "cafe", "building": "yes", "name": "Zizzo's", "opening_hours": "06:00-19:00", "phone": "+1-805-571-8888"}}, {"type": "way", "id": 382027875, "nodes": [3852294294, 3852294295, 3852294288, 3852294287, 3852294294], "tags": {"addr:city": "Goleta", "addr:country": "US", "addr:housenumber": "231", "addr:postcode": "93117", "addr:state": "CA", "addr:street": "South Magnolia Avenue", "amenity": "restaurant", "building": "yes", "cuisine": "sandwich", "name": "Goodland Kitchen", "opening_hours": "Mo-Fr 08:00-14:30"}}, {"type": "way", "id": 382027883, "nodes": [3852294290, 3852294291, 3852294283, 3852294282, 3852294290], "tags": {"alt_name": "Elegant Farmer", "alt_name_1": "Sizzler", "amenity": "restaurant", "disused:building": "yes", "name": "Butler Event Center", "old_name": "Blue Ox Steak House"}}, {"type": "way", "id": 441717175, "nodes": [4394263573, 4827772876, 4394263574, 4394263575, 4394263576, 4394263573], "tags": {"amenity": "restaurant", "building": "yes", "cuisine": "dessert", "name": "Crush Cakes Cafe", "takeaway": "yes"}}, {"type": "way", "id": 557542432, "nodes": [5377178080, 5377178081, 5377178082, 5377178083, 5377178080], "tags": {"addr:city": "Isla Vista", "addr:housenumber": "6546", "addr:postcode": "93117", "addr:street": "Pardall Road", "amenity": "restaurant", "brand": "Hummus Republic", "building": "yes", "building:levels": "2", "cuisine": "mediterranean", "name": "Hummus Republic", "outdoor_seating": "yes", "takeaway": "yes", "website": "https://www.thehummusrepublic.com/"}}, {"type": "way", "id": 558220085, "nodes": [5388736784, 2576361597, 5382676237, 5388736808, 5388736784], "tags": {"addr:city": "Isla Vista", "addr:housenumber": "901", "addr:postcode": "93117", "addr:street": "Embarcadero del Mar", "addr:unit": "104", "amenity": "restaurant", "building": "yes", "building:levels": "4", "cuisine": "curry;ramen", "localwiki": "https://localwiki.org/islavista/Sorriso_Italiano", "name": "Kaiju", "old_name": "Sorriso Italiano; Hanamura", "opening_hours": "Tu-Su 11:00-21:00", "phone": "+1 805-869-6316", "website": "https://kaijuramen.muncho.io"}}, {"type": "way", "id": 558220086, "nodes": [5388736808, 5551674143, 5382676409, 5382676238, 5388736790, 5382676237, 5388736808], "tags": {"addr:city": "Isla Vista", "addr:housenumber": "901", "addr:postcode": "93117", "addr:street": "Embarcadero del Mar", "addr:unit": "103", "amenity": "restaurant", "building": "yes", "building:levels": "4", "capacity": "20", "cuisine": "international", "localwiki": "https://localwiki.org/islavista/Buddha_Bowls", "name": "Dank Bowl Kitchen", "old_name": "Buddha Bowls", "opening_hours": "Su-Th 11:00-22:00; Fr-Sa 11:00-24:00", "outdoor_seating": "yes", "phone": "+1 805-961-4555", "takeaway": "yes", "website": "https://dankbowlkitchen.com/"}}, {"type": "way", "id": 558220097, "nodes": [5382676408, 5388736786, 5388736787, 2576361596, 5388736788, 5388736789, 5382676238, 5382676409, 5382676408], "tags": {"addr:city": "Isla Vista", "addr:housenumber": "901", "addr:postcode": "93117", "addr:street": "Embarcadero del Mar", "addr:unit": "102", "amenity": "restaurant", "building": "yes", "building:levels": "4", "name": "PokeCeviche", "opening_hours": "11:00-22:30", "website": "https://www.pokeceviche.com/locations/"}}, {"type": "way", "id": 558220100, "nodes": [5382676412, 5640501511, 5640501516, 534636330, 5382676412]}, {"type": "way", "id": 558220101, "nodes": [449488584, 534618778, 5382676415, 5382676413, 449488584], "tags": {"addr:city": "Isla Vista", "addr:housenumber": "910", "addr:postcode": "93117", "addr:street": "Embarcadero del Norte", "amenity": "pub", "building": "yes", "building:levels": "1", "localwiki": "https://localwiki.org/islavista/Dublin%27s", "name": "Dublin's Sports Grill", "opening_hours": "10:00-00:00", "phone": "+1-805-685-1503", "website": "https://www.facebook.com/pages/Dublins-Sports-Grill/120126398003759"}}, {"type": "way", "id": 558220103, "nodes": [534618761, 534618762, 5382676416, 2895960480, 5382676419, 5382676417, 5382676418, 534618761], "tags": {"addr:city": "Isla Vista", "addr:housenumber": "888", "addr:postcode": "93117", "addr:street": "Embarcadero del Norte", "amenity": "cafe", "brand": "Starbucks", "brand:wikidata": "Q37158", "brand:wikipedia": "en:Starbucks", "building": "yes", "building:levels": "1", "cuisine": "coffee_shop", "height": "2.8", "internet_access": "yes", "localwiki": "https://localwiki.org/islavista/Starbucks_Coffee", "name": "Starbucks", "official_name": "Starbucks Coffee", "opening_hours": "Mo-Sa 06:00-18:00; Su 06:30-18:00", "phone": "+1-805-968-1192", "roof:colour": "#DB5434", "roof:shape": "flat", "takeaway": "yes", "website": "https://www.starbucks.com/"}}, {"type": "way", "id": 558704253, "nodes": [5388736777, 5601332083, 5388736778, 5388736779, 534644243, 534644244, 5388736777], "tags": {"addr:city": "Isla Vista", "addr:housenumber": "6558", "addr:postcode": "93117", "addr:street": "Pardall Road", "amenity": "restaurant", "building": "yes", "building:levels": "1", "cuisine": "chinese;asian;chicken", "delivery": "yes", "localwiki": "https://localwiki.org/islavista/Hana_Kitchen", "name": "Hana Kitchen", "opening_hours": "Su-Th 11:00-01:00; Fr-Sa 11:00-03:00", "outdoor_seating": "yes", "phone": "+1-805-845-4054", "website": "https://www.hanakitchen.com"}}, {"type": "way", "id": 558704260, "nodes": [5382676429, 5382676428, 5388736783, 5388736781, 5388736782, 534644241, 5382676429], "tags": {"addr:city": "Isla Vista", "addr:housenumber": "6560", "addr:postcode": "93117", "addr:street": "Pardall Road", "amenity": "cafe", "building": "yes", "building:levels": "1", "contact:facebook": "https://www.facebook.com/Campus-Point-Coffee-Isla-Vista-101045764610454", "localwiki": "https://localwiki.org/islavista/Java_Jones", "name": "Campus Point Coffee", "old_name": "Java Jones"}}, {"type": "way", "id": 558704267, "nodes": [5551674141, 5388736798, 5388736799, 5388736804, 5388736803, 5388736800, 5388736801, 7888671165, 5388736802, 5551601089, 5551674142, 5551674141], "tags": {"addr:city": "Isla Vista", "addr:housenumber": "901", "addr:postcode": "93117", "addr:street": "Embarcadero del Mar", "addr:unit": "100", "amenity": "restaurant", "building": "yes", "building:levels": "4", "cuisine": "chinese", "localwiki": "https://localwiki.org/islavista/Wok_on_the_Wild_Side", "name": "Su's Bowl", "old_name": "Wok on the Wild Side", "opening_hours": "We-Mo 11:00-15:00, 17:00-21:30"}}, {"type": "way", "id": 565867024, "nodes": [5448653197, 7689528951, 7689528950, 5448653195, 7090604648, 7090604645, 5448653197], "tags": {"addr:city": "Isla Vista", "addr:housenumber": "966", "addr:postcode": "93117", "addr:street": "Embarcadero del Mar", "addr:unit": "B", "amenity": "cafe", "building": "yes", "building:levels": "1", "localwiki": "https://localwiki.org/islavista/Deja_Vu_Cafe", "name": "D\u00e9j\u00e0 Vu Caf\u00e9", "opening_hours": "11:00-14:00", "phone": "+1-805-968-8888", "website": "https://www.facebook.com/Deja-Vu-Cafe-IV-170644050321166/"}}, {"type": "way", "id": 565867040, "nodes": [5448654848, 5640501514, 534636330, 5551311540, 5448654850, 5448654848], "tags": {"addr:city": "Isla Vista", "addr:housenumber": "6543", "addr:postcode": "93117", "addr:street": "Pardall Road", "amenity": "bar", "building": "yes", "building:levels": "1", "contact:facebook": "https://www.facebook.com/thestudyhalliv", "localwiki": "https://localwiki.org/islavista/Study_Hall", "name": "The Study Hall", "opening_hours": "12:00-24:00", "phone": "+1-805-685-0929"}}, {"type": "way", "id": 569864020, "nodes": [5479655782, 5479655783, 5479655784, 5479655785, 5479655786, 5479655796, 5479655782], "tags": {"addr:city": "Isla Vista", "addr:housenumber": "956", "addr:postcode": "93117", "addr:street": "Embarcadero del Norte", "amenity": "restaurant", "building": "yes", "building:levels": "1", "cuisine": "mexican;american;tacos", "name": "California Tacos and Taproom", "opening_hours": "Mo-Su 11:00-22:00", "phone": "+1-805-770-8226", "website": "https://californiatacos.net/"}}, {"type": "way", "id": 579741589, "nodes": [5388736792, 5388736791, 5382676408, 5382676409, 5551674143, 5551601089, 5551674142, 5551674141, 5551601090, 5388736792], "tags": {"addr:city": "Isla Vista", "addr:housenumber": "901", "addr:postcode": "93117", "addr:street": "Embarcadero del Mar", "addr:unit": "101", "amenity": "restaurant", "building": "yes", "building:levels": "4", "cuisine": "mexican", "name": "Zocalo"}}, {"type": "way", "id": 590869281, "nodes": [534636330, 5640501514, 5640501515, 5382676412, 534636330]}, {"type": "way", "id": 623191540, "nodes": [5885604499, 5885604498, 5885604497, 5885604496, 5885604495, 5885604494, 5885604499], "tags": {"addr:city": "Goleta", "addr:housenumber": "4898", "addr:postcode": "93111", "addr:street": "Hollister Avenue", "amenity": "cafe", "building": "yes", "name": "Cody's Cafe", "opening_hours": "06:00-21:00", "phone": "+1-805-683-5141"}}, {"type": "way", "id": 651565535, "nodes": [6038096698, 9753446734, 9753446733, 2442092132, 9753446730, 9753446732, 9753446731, 9753446729, 6109689162, 6109689163, 9753446739, 9753446738, 9753446737, 9753446736, 9753446735, 6038096698], "tags": {"addr:city": "Goleta", "addr:housenumber": "6940", "addr:postcode": "93117", "addr:street": "Marketplace Drive", "amenity": "restaurant", "building": "yes", "name": "Jane", "phone": "+1-805-770-5388", "website": "https://www.janeatthemarketplace.com/"}}, {"type": "way", "id": 662532839, "nodes": [6202482039, 6202480263, 6202480264, 6202480265, 6202482039], "tags": {"addr:city": "Goleta", "addr:housenumber": "4880", "addr:postcode": "93111", "addr:street": "Hollister Avenue", "amenity": "restaurant", "building": "yes", "cuisine": "pizza", "name": "Rusty's Pizza Parlor"}}, {"type": "way", "id": 690116808, "nodes": [2448210461, 6474493934, 6474493935, 6474493936, 6474493937, 6474493938, 658936934, 658936933, 6474493940, 2448210461], "tags": {"addr:city": "Goleta", "addr:housenumber": "6831", "addr:postcode": "93117", "addr:street": "Hollister Avenue", "addr:unit": "A", "amenity": "restaurant", "building": "yes", "building:levels": "1", "cuisine": "cajun;cafe", "height": "3", "name": "Cajun Kitchen Cafe", "opening_hours": "Mo-Sa 06:00-14:30; Su 06:30-14:30", "phone": "+1-805-571-1517", "website": "https://cajunkitchencafe.com/restaurant-locations#yui_3_17_2_1_1542347852549_343"}}, {"type": "way", "id": 690116810, "nodes": [6474493943, 6474493941, 5416803495, 6474493944, 658936935, 6474493943], "tags": {"addr:city": "Goleta", "addr:housenumber": "6831", "addr:postcode": "93117", "addr:unit": "L", "amenity": "restaurant", "building": "yes", "building:levels": "1", "cuisine": "vietnamese", "height": "3", "name": "Saigon Noodle House", "opening_hours": "10:00-20:00", "takeaway": "yes"}}, {"type": "way", "id": 695820598, "nodes": [6533881229, 6165117877, 6165117876, 6165117875, 6070199821, 6165117891, 6165117890, 6165117889, 6165117888, 6165117887, 6533881230, 6165117878, 6533881229], "tags": {"addr:city": "Goleta", "addr:housenumber": "152", "addr:postcode": "93117", "addr:street": "Aero Camino", "amenity": "restaurant", "building": "yes", "cuisine": "barbecue", "name": "Neighbor Tim's BBQ", "source": "https://www.yelp.com/biz/neighbor-tims-bbq-goleta-6"}}, {"type": "way", "id": 759150524, "nodes": [5448653197, 7090604647, 7090604646, 7090604645, 5448653197], "tags": {"addr:city": "Isla Vista", "addr:housenumber": "966", "addr:postcode": "93117", "addr:state": "CA", "addr:street": "Embarcadero del Mar", "addr:unit": "C", "amenity": "restaurant", "building": "yes", "building:levels": "1", "cuisine": "chinese", "localwiki": "https://localwiki.org/islavista/The_Cantina", "name": "Red Pepper Chinese Food Express", "old_name": "The Cantina", "opening_hours": "Mo-Su 11:00-21:00", "phone": "+1-805-869-2967"}}, {"type": "way", "id": 759150529, "nodes": [534618833, 7090604680, 5551311546, 534618831, 534618833], "tags": {"addr:city": "Isla Vista", "addr:housenumber": "938", "addr:postcode": "93117", "addr:street": "Embarcadero del Norte", "amenity": "cafe", "building": "yes", "building:levels": "1", "cuisine": "mediterranean", "localwiki": "https://localwiki.org/islavista/Aladdin_Cafe", "name": "Aladdin", "old_name": "Borsodi's Coffehouse", "website": "https://www.facebook.com/AladdinCafeIV/?rf=1862577734019336"}}, {"type": "way", "id": 759150530, "nodes": [761831834, 7090604681, 6070195423, 2576464812, 761831834], "tags": {"addr:city": "Isla Vista", "addr:housenumber": "948", "addr:postcode": "93117", "addr:street": "Embarcadero Del Norte", "addr:unit": "101", "amenity": "cafe", "building": "yes", "building:levels": "1", "contact:website": "https://www.facebook.com/cajeIV", "internet_access": "yes", "localwiki": "https://localwiki.org/islavista/Caje", "name": "Caj\u00e9 Caf\u00e9", "opening_hours": "Mo-Th 06:30-22:00; Fr-Su 07:00-22:00", "outdoor_seating": "yes", "website": "http://cajeislavista.com/"}}, {"type": "way", "id": 759150533, "nodes": [5551311536, 7090604683, 5600999816, 7090604684, 7090642285, 7090642286, 7090642287, 7090642288, 534627609, 2576282973, 2576282974, 5551311534, 5551311535, 5551311536], "tags": {"addr:city": "Isla Vista", "addr:housenumber": "6533", "addr:postcode": "93117", "addr:street": "Trigo Road", "amenity": "restaurant", "building": "yes", "building:levels": "3", "cuisine": "japanese", "email": "sizzlinglunchsantabarbara@gmail.com", "name": "Sizzling Lunch", "opening_hours": "Mo-Su 11:00-21:00", "website": "https://www.facebook.com/SizzlingLunch/"}}, {"type": "way", "id": 759150538, "nodes": [7090642312, 7090642311, 7090642303, 7090642304, 5367719695, 648870096, 648858830, 5367719686, 5367719689, 7090642312], "tags": {"addr:city": "Isla Vista", "addr:housename": "Angry Wings", "addr:housenumber": "6530", "addr:postcode": "93117", "addr:state": "CA", "addr:street": "Pardall Road", "amenity": "restaurant", "building": "yes", "building:levels": "1", "cuisine": "chinese", "designation": "Spicy Wings", "height": "2.8", "localwiki": "https://localwiki.org/islavista/Angry_Wings", "name": "Lao Wang", "old_name": "Angry Wings", "opening_hours": "11:00-22:00", "phone": "+1-805-845-1614"}}, {"type": "relation", "id": 8325250, "members": [{"type": "way", "ref": 558220100, "role": "outer"}], "tags": {"addr:city": "Isla Vista", "addr:housenumber": "905", "addr:postcode": "93117", "addr:street": "Embarcadero del Norte", "amenity": "cafe", "building": "yes", "building:levels": "1", "cuisine": "coffee_shop;ice_cream;coffee;tea;frozen_yogurt", "localwiki": "https://localwiki.org/islavista/IV_Drip", "name": "I. V. Drip", "opening_hours": "07:00-00:00", "phone": "+1-805-968-4550", "type": "multipolygon", "website": "https://www.facebook.com/pages/iv-drip/38531669652"}}, {"type": "relation", "id": 8325251, "members": [{"type": "way", "ref": 590869281, "role": "outer"}], "tags": {"addr:city": "Isla Vista", "addr:housenumber": "903", "addr:postcode": "93117", "addr:street": "Embarcadero del Norte", "amenity": "restaurant", "building": "yes", "building:levels": "1", "contact:website": "http://www.phobistrogoleta.com/contact.html", "cuisine": "vietnamese", "localwiki": "https://localwiki.org/islavista/Pho_Bistro", "name": "Pho Bistro", "opening_hours": "11:00-22:00", "phone": "+1-805-685-3610", "type": "multipolygon", "website": "http://phobistrogoleta.com/"}}]}