{"version": 0.6, "generator": "Overpass API 0.7.58.5 b0c4acbb", "osm3s": {"timestamp_osm_base": "2022-09-26T03:38:39Z", "copyright": "The data included in this document is from www.openstreetmap.org. The data is made available under ODbL."}, "elements": [{"type": "node", "id": 2503392776, "lat": 34.4146972, "lon": -119.6918383}, {"type": "node", "id": 2503392777, "lat": 34.4146526, "lon": -119.6917759}, {"type": "node", "id": 2503392778, "lat": 34.4146465, "lon": -119.6917823}, {"type": "node", "id": 2503392779, "lat": 34.4145979, "lon": -119.6917143}, {"type": "node", "id": 2503392780, "lat": 34.4144528, "lon": -119.6918666}, {"type": "node", "id": 2503392781, "lat": 34.4144721, "lon": -119.6918937}, {"type": "node", "id": 2503392782, "lat": 34.4144267, "lon": -119.6919414}, {"type": "node", "id": 2503392783, "lat": 34.4145009, "lon": -119.6920453}, {"type": "node", "id": 2503392793, "lat": 34.4145075, "lon": -119.6920398}, {"type": "node", "id": 2503392840, "lat": 34.4172667, "lon": -119.6959467}, {"type": "node", "id": 2503392841, "lat": 34.4173593, "lon": -119.6960721}, {"type": "node", "id": 2503392842, "lat": 34.4175834, "lon": -119.695829}, {"type": "node", "id": 2503392843, "lat": 34.4174908, "lon": -119.6957035}, {"type": "node", "id": 2509930263, "lat": 34.422618, "lon": -119.7054507, "tags": {"addr:housenumber": "30", "addr:street": "West Anapamu Street", "amenity": "bar", "cuisine": "ba", "name": "Milk & Honey Tapas"}}, {"type": "node", "id": 2510529943, "lat": 34.4181178, "lon": -119.698529}, {"type": "node", "id": 2510529946, "lat": 34.4179829, "lon": -119.6986732}, {"type": "node", "id": 2510529949, "lat": 34.4178722, "lon": -119.6985211}, {"type": "node", "id": 2510529951, "lat": 34.4180071, "lon": -119.6983768}, {"type": "node", "id": 2510529959, "lat": 34.4179129, "lon": -119.6984776}, {"type": "node", "id": 5574829621, "lat": 34.4156881, "lon": -119.6886438, "tags": {"addr:housenumber": "116", "addr:postcode": "93101", "addr:street": "Santa Barbara Street", "amenity": "bar", "email": "info@lamadog.com", "name": "Lama Dog", "opening_hours": "Su-Th 11:30-22:00; Fr-Sa 11:30-00:00", "phone": "8058803364", "website": "https://www.lamadog.com/"}}, {"type": "node", "id": 5633534807, "lat": 34.4172335, "lon": -119.6963695, "tags": {"addr:city": "Santa Barbara", "addr:housenumber": "519", "addr:postcode": "93101", "addr:street": "State Street", "amenity": "bar", "name": "The Red Piano"}}, {"type": "node", "id": 5738074722, "lat": 34.4226034, "lon": -119.7036972, "tags": {"amenity": "bar", "name": "Satellite SB"}}, {"type": "node", "id": 5886147670, "lat": 34.415115, "lon": -119.691771}, {"type": "node", "id": 5886147671, "lat": 34.415191, "lon": -119.691865}, {"type": "node", "id": 5886147672, "lat": 34.415293, "lon": -119.691743}, {"type": "node", "id": 5886147673, "lat": 34.415217, "lon": -119.691649}, {"type": "node", "id": 5889680529, "lat": 34.4172899, "lon": -119.6964566, "tags": {"addr:city": "Santa Barbara", "addr:housenumber": "525", "addr:postcode": "93101", "addr:street": "State Street", "amenity": "bar", "amenity_1": "restaurant", "club": "dance", "cuisine": "mexican", "fee": "no", "name": "Baja Sharkeez", "opening_hours": "11:00-02:00", "phone": "+1-805-845-9572", "website": "http://sharkeez.net/santa-barbara/"}}, {"type": "node", "id": 6426948585, "lat": 34.413981, "lon": -119.6888259, "tags": {"addr:housenumber": "28", "addr:street": "Anacapa Street", "amenity": "bar", "name": "Brass Bear"}}, {"type": "node", "id": 6979706267, "lat": 34.4385961, "lon": -119.7518453, "tags": {"amenity": "bar", "name": "Blenders In The Grass - 5 Points"}}, {"type": "node", "id": 9737935286, "lat": 34.4161667, "lon": -119.6898439, "tags": {"addr:housenumber": "2051", "addr:unit": "B", "amenity": "pub", "microbrewery": "yes", "name": "Rincon Brewery"}}, {"type": "node", "id": 10012453785, "lat": 34.4150482, "lon": -119.6901815, "tags": {"amenity": "pub", "name": "Validation Ale"}}, {"type": "way", "id": 242894962, "nodes": [2503392776, 2503392777, 2503392778, 2503392779, 2503392780, 2503392781, 2503392782, 2503392783, 2503392793, 2503392776], "tags": {"addr:city": "Santa Barbara", "addr:housenumber": "214", "addr:postcode": "93101", "addr:street": "State Street", "amenity": "pub", "building": "yes", "name": "Union Ale"}}, {"type": "way", "id": 242894974, "nodes": [2503392840, 2503392841, 2503392842, 2503392843, 2503392840], "tags": {"addr:city": "Santa Barbara", "addr:housenumber": "516", "addr:postcode": "93101", "addr:state": "CA", "addr:street": "State Street", "amenity": "bar", "building": "yes", "name": "Institution Ale Company", "website": "https://www.institutionales.com/"}}, {"type": "way", "id": 243675828, "nodes": [2510529943, 2510529946, 2510529949, 2510529959, 2510529951, 2510529943], "tags": {"addr:city": "Santa Barbara", "addr:housenumber": "15", "addr:postcode": "93101", "addr:street": "West Ortega Street", "amenity": "bar", "atm": "yes", "building": "yes", "club": "dance", "name": "Wildcat", "official_name": "Wildcat Lounge", "opening_hours": "Mo-Su 16:00-02:00", "operator": "Wildcat Lounge", "outdoor_seating": "yes", "phone": "+1-805-962-7970", "smoking": "isolated", "website": "http://www.wildcatlounge.com/"}}, {"type": "way", "id": 623255721, "nodes": [5886147673, 5886147672, 5886147671, 5886147670, 5886147673], "tags": {"addr:city": "Santa Barbara", "addr:housenumber": "224", "addr:postcode": "93101", "addr:street": "Helena Avenue", "alt_name": "Seven Bar", "amenity": "bar", "building": "yes", "name": "Seven Bar & Kitchen", "phone": "+1-805-845-0377", "website": "http://www.sevensb.com/"}}]}